49297,ONEWEB-0371,2021,109.11,148.0,+,87.92,Active,1,LEO,Russia,UK,Commercial,Communications,Soyuz,1 49297U 21090U   24321.23845104  .00000109  00000+0  23953-3 0  9996,2 49297  87.9188  59.8876 0001646  98.8584 261.2736 13.19726083150223,13.19726083,0.0001646,LEO
49298,ONEWEB-0372,2021,109.03,148.0,+,87.93,Active,1,LEO,Russia,UK,Commercial,Communications,Soyuz,1 49298U 21090V   24321.74308549  .00000063  00000+0  12342-3 0  9999,2 49298  87.9288  29.3258 0001911  96.8431 263.2920 13.20769701154918,13.20769701,0.0001911,LEO
49299,ONEWEB-0373,2021,109.03,148.0,+,87.93,Active,1,LEO,Russia,UK,Commercial,Communications,Soyuz,1 49299U 21090W   24321.46702283  .00000043  00000+0  74486-4 0  9998,2 49299  87.9289  29.3945 0002084 106.3447 253.7916 13.20772222156068,13.20772222,0.0002084,LEO
49300,ONEWEB-0374,2021,109.55,148.0,+,87.9,Active,1,LEO,Russia,UK,Commercial,Communications,Soyuz,1 49300U 21090X   24321.30861478 -.00001921  00000+0 -52176-2 0  9994,2 49300  87.9030  44.6144 0001978 103.8590 256.2760 13.14507073152938,13.14507073,0.0001978,LEO
49301,ONEWEB-0375,2021,109.03,148.0,+,87.93,Active,1,LEO,Russia,UK,Commercial,Communications,Soyuz,1 49301U 21090Y   24321.45439820  .00000129  00000+0  28612-3 0  9999,2 49301  87.9285  29.3737 0002244 117.9914 242.1446 13.20772603155558,13.20772603,0.0002244,LEO
49302,ONEWEB-0376,2021,109.11,148.0,+,87.92,Active,1,LEO,Russia,UK,Commercial,Communications,Soyuz,1 49302U 21090Z   24321.76758017 -.00000155  00000+0 -42003-3 0  9997,2 49302  87.9179  59.7806 0001803  92.3329 267.8010 13.19723331151572,13.19723331,0.0001803,LEO
49303,ONEWEB-0377,2021,109.03,148.0,+,87.93,Active,1,LEO,Russia,UK,Commercial,Communications,Soyuz,1 49303U 21090AA  24321.44032855  .00000089  00000+0  18703-3 0  9992,2 49303  87.9290  29.3691 0001649 106.6520 253.4795 13.20770405155539,13.20770405,0.0001649,LEO
49304,ONEWEB-0378,2021,109.03,148.0,+,87.93,Active,1,LEO,Russia,UK,Commercial,Communications,Soyuz,1 49304U 21090AB  24321.23515490  .00000082  00000+0  16950-3 0  9996,2 49304  87.9290  29.4144 0001969 103.9965 256.1387 13.20771034153491,13.20771034,0.0001969,LEO
